0 COSMOS 2251 DEB
1 36625U 93036BEP 13279.01030331  .00004214  00000-0  90763-3 0  1997
2 36625 073.8883 024.9871 0077034 257.6975 215.8692 14.56944117212408
0 COSMOS 2251 DEB
1 36625U 93036BEP 13281.60969969  .00004344  00000-0  93519-3 0  2002
2 36625 073.8877 020.0046 0076922 252.2082 169.7664 14.56963794212786
0 COSMOS 2251 DEB
1 36625U 93036BEP 13283.95548730  .00006403  00000-0  13739-2 0  2015
2 36625 073.8866 015.5040 0076810 247.4383 233.4920 14.56991987213121
0 COSMOS 2251 DEB
1 36625U 93036BEP 13285.59210884  .00004866  00000-0  10456-2 0  2028
2 36625 073.8878 012.3706 0076932 243.9876 177.8732 14.57007090213363
0 COSMOS 2251 DEB
1 36625U 93036BEP 13287.58325410  .00006646  00000-0  14243-2 0  2038
2 36625 073.8886 008.5557 0076969 239.9070 181.7902 14.57024044213657
0 COSMOS 2251 DEB
1 36625U 93036BEP 13292.88188892  .00005157  00000-0  11058-2 0  2046
2 36625 073.8873 358.3995 0076879 228.9390 254.9806 14.57084854214425
